     2.100          NAVIGATION                              RINEX VERSION / TYPE
fic2rin                                 06/12/2017 00:05:39 PGM / RUN BY / DATE
                                                            END OF HEADER
 9 17  6 11  6  0  0.0  .382260419428D-03  .807176547823D-11  .000000000000D+00
     .440000000000D+02 -.169687500000D+02  .491091884520D-08  .196909283881D+01
    -.927597284317D-06  .701060984284D-03  .710971653461D-05  .515361375618D+04
     .216000000000D+05 -.558793544769D-07 -.686646845254D+00 -.782310962677D-07
     .953459188591D+00  .234125000000D+03  .195725679288D+01 -.811533803640D-08
    -.585738684082D-09  .100000000000D+01  .195300000000D+04  .000000000000D+00
     .240000000000D+01  .000000000000D+00  .139698386192D-08  .440000000000D+02
     .144060000000D+05  .400000000000D+01
10 17  6 11  6  0  0.0 -.285860151052D-04  .114823706099D-10  .000000000000D+00
     .610000000000D+02  .166875000000D+02  .496627829400D-08 -.238227621002D+01
     .791624188423D-06  .256677635480D-02  .626780092716D-05  .515366420555D+04
     .216000000000D+05  .316649675369D-07 -.172681184691D+01 -.113621354103D-06
     .959570199710D+00  .260093750000D+03 -.276907813728D+01 -.809176562595D-08
     .402873924173D-09  .100000000000D+01  .195300000000D+04  .000000000000D+00
     .240000000000D+01  .000000000000D+00  .186264514923D-08  .610000000000D+02
     .144060000000D+05  .400000000000D+01
11 17  6 11  6  0  0.0 -.694482587278D-03 -.272848410532D-11  .000000000000D+00
     .240000000000D+02 -.870625000000D+02  .567416492317D-08 -.806012860345D+00
    -.455230474472D-05  .168150332756D-01  .928901135921D-05  .515371914291D+04
     .216000000000D+05 -.244006514549D-06  .311454133946D+01  .100582838058D-06
     .901452775641D+00  .174812500000D+03  .164855881839D+01 -.880536677887D-08
     .215008955986D-09  .100000000000D+01  .195300000000D+04  .000000000000D+00
     .240000000000D+01  .000000000000D+00 -.121071934700D-07  .240000000000D+02
     .144060000000D+05  .400000000000D+01
12 17  6 11  6  0  0.0  .381653662771D-03 -.909494701773D-12  .000000000000D+00
     .760000000000D+02  .636562500000D+02  .398302305175D-08 -.142793760724D+01
     .334158539772D-05  .666776928119D-02  .158138573170D-05  .515377402306D+04
     .216000000000D+05  .193715095520D-06  .147617719339D+01 -.260770320892D-07
     .988892901896D+00  .364468750000D+03  .891009726154D+00 -.806676458455D-08
     .131434046184D-09  .100000000000D+01  .195300000000D+04  .000000000000D+00
     .240000000000D+01  .000000000000D+00 -.125728547573D-07  .760000000000D+02
     .144060000000D+05  .400000000000D+01
13 17  6 11  6  0  0.0 -.849524512887D-04 -.125055521494D-11  .000000000000D+00
     .900000000000D+01 -.965625000000D+01  .456018995022D-08  .250719397435D+00
    -.419095158577D-06  .365798780695D-02  .823289155960D-05  .515368605995D+04
     .216000000000D+05 -.558793544769D-08 -.560244578950D+00  .633299350739D-07
     .969625175066D+00  .226156250000D+03  .183128975348D+01 -.794068790438D-08
    -.568595112840D-09  .100000000000D+01  .195300000000D+04  .000000000000D+00
     .240000000000D+01  .000000000000D+00 -.111758708954D-07  .900000000000D+01
     .144060000000D+05  .400000000000D+01
14 17  6 11  6  0  0.0 -.739432871342D-04 -.136424205266D-11  .000000000000D+00
     .160000000000D+02 -.168437500000D+02  .467733768703D-08  .162380181770D+01
    -.103190541267D-05  .919467257336D-02  .808574259281D-05  .515365611839D+04
     .216000000000D+05 -.188127160072D-06 -.599780977251D+00 -.180676579475D-06
     .962108543980D+00  .228031250000D+03 -.195856365564D+01 -.798604693662D-08
    -.606096674931D-09  .100000000000D+01  .195300000000D+04  .000000000000D+00
     .240000000000D+01  .000000000000D+00 -.931322574615D-08  .160000000000D+02
     .144060000000D+05  .400000000000D+01
15 17  6 11  6  0  0.0 -.351508613676D-03 -.682121026330D-12  .000000000000D+00
     .600000000000D+02 -.195625000000D+02  .567273629224D-08  .103952079690D+01
    -.702217221260D-06  .917235040106D-02  .681169331074D-05  .515380526543D+04
     .216000000000D+05  .167638063431D-07 -.748580165323D+00  .126659870148D-06
     .929014029369D+00  .231406250000D+03  .583367977058D+00 -.856964267430D-08
    -.648241287566D-09  .100000000000D+01  .195300000000D+04  .000000000000D+00
     .240000000000D+01  .000000000000D+00 -.107102096081D-07  .600000000000D+02
     .144060000000D+05  .400000000000D+01
17 17  6 11  6  0  0.0 -.175308901817D-03  .193267624127D-11  .000000000000D+00
     .700000000000D+02 -.112812500000D+03  .389230498727D-08  .193225364013D+01
    -.588409602642D-05  .116301911185D-01  .474229454994D-05  .515364402771D+04
     .216000000000D+05  .111758708954D-07  .251291166239D+01 -.303611159325D-06
     .980268843286D+00  .297062500000D+03 -.184912502311D+01 -.783925510787D-08
    -.119290683221D-09  .100000000000D+01  .195300000000D+04  .000000000000D+00
     .240000000000D+01  .000000000000D+00 -.111758708954D-07  .700000000000D+02
     .144060000000D+05  .400000000000D+01
18 17  6 11  6  0  0.0  .619545113295D-03  .159161572810D-11  .000000000000D+00
     .300000000000D+02  .214375000000D+02  .566737892622D-08 -.290629772018D+01
     .101886689663D-05  .181327392347D-01  .572949647903D-05  .515360527420D+04
     .216000000000D+05  .398606061935D-06 -.176948969501D+01 -.707805156708D-07
     .925183618297D+00  .245875000000D+03 -.180062588311D+01 -.824462913618D-08
     .493591988659D-09  .100000000000D+01  .195300000000D+04  .000000000000D+00
     .240000000000D+01  .000000000000D+00 -.111758708954D-07  .300000000000D+02
     .144060000000D+05  .400000000000D+01
19 17  6 11  6  0  0.0 -.500188674778D-03  .147792889038D-11  .000000000000D+00
     .530000000000D+02 -.105250000000D+03  .405909764914D-08 -.128622820002D+01
    -.515393912792D-05  .103026159341D-01  .500492751598D-05  .515366965485D+04
     .216000000000D+05  .167638063431D-06  .256071845446D+01  .124797224998D-06
     .977578869021D+00  .284093750000D+03  .993314899484D+00 -.794068790438D-08
    -.108933108930D-09  .100000000000D+01  .195300000000D+04  .000000000000D+00
     .240000000000D+01  .000000000000D+00 -.153668224812D-07  .530000000000D+02
     .144060000000D+05  .400000000000D+01
20 17  6 11  6  0  0.0  .475682318211D-03  .147792889038D-11  .000000000000D+00
     .780000000000D+02  .215312500000D+02  .575988277938D-08  .103089121431D+01
     .112690031528D-05  .432648707647D-02  .638514757156D-05  .515368178749D+04
     .216000000000D+05 -.912696123123D-07 -.182083575844D+01 -.335276126862D-07
     .926568252704D+00  .239968750000D+03  .160779005205D+01 -.854964184119D-08
     .499306512406D-09  .100000000000D+01  .195300000000D+04  .000000000000D+00
     .240000000000D+01  .000000000000D+00 -.838190317154D-08  .780000000000D+02
     .144060000000D+05  .400000000000D+01
21 17  6 11  6  0  0.0 -.501612201333D-03  .238742359215D-11  .000000000000D+00
     .800000000000D+02 -.589375000000D+02  .453018870054D-08 -.198500738771D+01
    -.282563269138D-05  .239580657799D-01  .105053186417D-04  .515367297745D+04
     .216000000000D+05  .407919287682D-06 -.280984971974D+01  .217929482460D-06
     .940218037638D+00  .154312500000D+03 -.166636871225D+01 -.760531679197D-08
     .499306512406D-09  .100000000000D+01  .195300000000D+04  .000000000000D+00
     .340000000000D+01  .000000000000D+00 -.977888703346D-08  .800000000000D+02
     .144060000000D+05  .400000000000D+01
22 17  6 11  6  0  0.0 -.188010744750D-04 -.122781784739D-10  .000000000000D+00
     .500000000000D+02  .199375000000D+02  .586095841816D-08  .139209220831D+01
     .964850187302D-06  .752840377390D-02  .604242086411D-05  .515379934883D+04
     .216000000000D+05 -.162050127983D-06 -.176966147524D+01 -.169500708580D-06
     .923229837074D+00  .246906250000D+03 -.172107064100D+01 -.860714423639D-08
     .448590114150D-09  .100000000000D+01  .195300000000D+04  .000000000000D+00
     .240000000000D+01  .000000000000D+00 -.176951289177D-07  .500000000000D+02
     .144060000000D+05  .400000000000D+01
23 17  6 11  6  0  0.0 -.213354360312D-03 -.682121026330D-12  .000000000000D+00
     .760000000000D+02 -.180937500000D+02  .524807574628D-08  .599757231165D+00
    -.687316060066D-06  .117833173135D-01  .699982047081D-05  .515373046684D+04
     .216000000000D+05 -.596046447754D-07 -.684953716534D+00  .109896063805D-06
     .944326056434D+00  .234687500000D+03 -.245377981435D+01 -.842427947648D-08
    -.643598237021D-09  .100000000000D+01  .195300000000D+04  .000000000000D+00
     .240000000000D+01  .000000000000D+00 -.204890966415D-07  .760000000000D+02
     .144060000000D+05  .400000000000D+01
24 17  6 11  6  0  0.0 -.360333360732D-04 -.454747350886D-12  .000000000000D+00
     .230000000000D+02  .922187500000D+02  .459304846176D-08  .937615649741D-02
     .472739338875D-05  .567138195038D-02  .101402401924D-04  .515369768906D+04
     .216000000000D+05  .353902578354D-07  .337720374701D+00  .540167093277D-07
     .945624603963D+00  .172062500000D+03  .484413478611D+00 -.806855037322D-08
    -.315370279295D-09  .100000000000D+01  .195300000000D+04  .000000000000D+00
     .240000000000D+01  .000000000000D+00  .279396772385D-08  .230000000000D+02
     .144060000000D+05  .400000000000D+01
25 17  6 11  6  0  0.0 -.402766745538D-03 -.659383658785D-11  .000000000000D+00
     .360000000000D+02  .777812500000D+02  .415767318378D-08 -.194338465757D+01
     .407546758652D-05  .652776530478D-02  .188685953617D-05  .515358077621D+04
     .216000000000D+05  .260770320892D-07  .142068109323D+01 -.158324837685D-06
     .976822552077D+00  .353062500000D+03  .821451165035D+00 -.806676458455D-08
     .203579908492D-09  .100000000000D+01  .195300000000D+04  .000000000000D+00
     .240000000000D+01  .000000000000D+00  .558793544769D-08  .360000000000D+02
     .144060000000D+05  .400000000000D+01
